STARLINK-30563          
1 58042U 23156Q   26196.33476939  .00000352  00000+0  24013-4 0  9997
2 58042  53.1593 202.8575 0001066  74.6517 285.4602 15.30192300155898
STARLINK-30564          
1 58043U 23156R   26197.04437752 -.00062157  00000+0 -21068-2 0  9995
2 58043  53.1564 202.2938 0001725 134.8715 225.2426 15.30156395155963
STARLINK-30547          
1 58044U 23156S   26196.75417140  .00000251  00000+0  18573-4 0  9996
2 58044  53.1601 291.6265 0000942  95.7529 264.3582 15.34398205154664
STARLINK-30550          
1 58045U 23156T   26197.18053307 -.00000477  00000+0 -29913-5 0  9999
2 58045  53.1605 123.4315 0001431  77.6389 282.4774 15.34400466157068
STARLINK-30548          
1 58046U 23156U   26196.53563688 -.00001787  00000+0 -41803-4 0  9992
2 58046  53.1594 292.4428 0001040  64.0143 296.0967 15.34382735154589
STARLINK-30529          
1 58047U 23156V   26197.16668980  .00057080  00000+0  16363-2 0  9990
2 58047  53.1602 291.5696 0002016  89.3073 173.2860 15.35372401  5856
STARLINK-30554          
1 58048U 23156W   26196.63318894  .00001562  00000+0  64841-4 0  9998
2 58048  53.1589 293.7553 0000864  82.3831 277.7268 15.30196635154575
STARLINK-30568          
1 58051U 23158A   26196.90216799  .00000966  00000+0  44630-4 0  9996
2 58051  43.0049  23.3782 0002079 236.6053 123.4600 15.27572748153169
STARLINK-30575          
1 58052U 23158B   26196.89831921 -.00000212  00000+0  18056-5 0  9994
2 58052  43.0023  23.3529 0000908 243.1468 116.9291 15.27574210153173
STARLINK-30577          
1 58053U 23158C   26196.93158399 -.00000347  00000+0 -30847-5 0  9993
2 58053  43.0015  22.7295 0000941 283.3843  76.6904 15.27572228153189
STARLINK-30566          
1 58054U 23158D   26196.92387565  .00090991  00000+0  32648-2 0  9992
2 58054  42.9957  22.6947 0001752 319.6512  40.4210 15.27687261153186
STARLINK-30544          
1 58055U 23158E   26196.91230343  .00009353  00000+0  34948-3 0  9991
2 58055  43.0064  22.5999 0001919 243.9749 116.0905 15.27532236153182
STARLINK-30553          
1 58056U 23158F   26196.86105549  .00000009  00000+0  98613-5 0  9995
2 58056  43.0026  23.0739 0001610 263.2545  96.8123 15.27575497153178
STARLINK-30541          
1 58057U 23158G   26196.92002140 -.00000049  00000+0  77360-5 0  9997
2 58057  43.0029  22.6602 0001382 268.9153  91.1540 15.27571039153189
STARLINK-30573          
1 58058U 23158H   26196.93029646  .00001523  00000+0  64868-4 0  9994
2 58058  43.0012  22.7339 0000873 286.1649  73.9107 15.27578590153182
STARLINK-30582          
1 58059U 23158J   26196.90845014  .00002047  00000+0  83908-4 0  9995
2 58059  43.0056  22.5743 0001603 265.3595  94.7073 15.27575455153189
STARLINK-30558          
1 58060U 23158K   26196.89060071  .00000546  00000+0  29377-4 0  9999
2 58060  43.0054  23.2842 0001128 280.6260  79.4464 15.27580078153178
STARLINK-30579          
1 58061U 23158L   26197.16034715  .00002644  00000+0  10559-3 0  9999
2 58061  43.0037 355.7142 0001160 253.6135 106.4589 15.27575818153516
STARLINK-30588          
1 58062U 23158M   26196.86876242  .00000783  00000+0  37997-4 0  9993
2 58062  43.0024  23.1299 0001264 267.0920  92.9787 15.27573000153170
STARLINK-30585          
1 58063U 23158N   26196.94185722  .00002595  00000+0  10380-3 0  9998
2 58063  43.0004  22.8210 0001330 264.8833  95.1866 15.27581094153186
STARLINK-30587          
1 58064U 23158P   26196.91616113  .00000067  00000+0  11982-4 0  9991
2 58064  43.0038  22.6310 0001533 272.8660  87.2016 15.27576021153188
STARLINK-30576          
1 58065U 23158Q   26196.87004640  .00000899  00000+0  42181-4 0  9991
2 58065  43.0025  23.1462 0001433 253.8414 106.2280 15.27581493153177
STARLINK-30571          
1 58066U 23158R   26196.88675162  .00000375  00000+0  23125-4 0  9992
2 58066  43.0012  23.2620 0000744 256.0504 104.0265 15.27578339153174
STARLINK-30567          
1 58067U 23158S   26196.50214187 -.00000378  00000+0 -42078-5 0  9992
2 58067  43.0032  25.5214 0000955 244.1801 115.8952 15.27574674153118
STARLINK-30569          
1 58068U 23158T   26196.93750612  .00002510  00000+0  10071-3 0  9992
2 58068  43.0028  26.1951 0001997 257.8572 102.2056 15.27584149153148
STARLINK-30480          
1 58069U 23158U   26197.19023617  .00001564  00000+0  66385-4 0  9998
2 58069  43.0016 239.1304 0001752 274.4214  85.6437 15.27570020154894
STARLINK-30532          
1 58070U 23158V   26196.93799389 -.00002787  00000+0 -91772-4 0  9995
2 58070  43.0045  22.7876 0001354 267.6651  92.4046 15.27580946153186
STARLINK-30506          
1 58072U 23158X   26196.88291426  .00000280  00000+0  19737-4 0  9995
2 58072  42.9851  23.2402 0004080  51.2851 308.8364 15.27578551153175
STARLINK-30604          
1 58075U 23160A   26197.01623266  .00000335  00000+0  21717-4 0  9990
2 58075  43.0023  73.0102 0001382 258.1367 101.9330 15.27575401152572
STARLINK-30500          
1 58076U 23160B   26197.02907525  .00001322  00000+0  57566-4 0  9993
2 58076  43.0027  73.0948 0001075 268.8796  91.1933 15.27581761152573
