OBJECT_NAME,OBJECT_ID,EPOCH,MEAN_MOTION,ECCENTRICITY,INCLINATION,RA_OF_ASC_NODE,ARG_OF_PERICENTER,MEAN_ANOMALY,EPHEMERIS_TYPE,CLASSIFICATION_TYPE,NORAD_CAT_ID,ELEMENT_SET_NO,REV_AT_EPOCH,BSTAR,MEAN_MOTION_DOT,MEAN_MOTION_DDOT
STARLINK-30563,2023-156Q,2026-07-15T08:02:04.075296,15.30192300,.00010665,53.1593,202.8575,74.6517,285.4602,0,U,58042,999,15589,.24012789E-4,.352E-5,0
STARLINK-30564,2023-156R,2026-07-16T01:03:54.217728,15.30156395,.0001725,53.1564,202.2938,134.8715,225.2426,0,U,58043,999,15596,-.21068E-2,-.62157E-3,0
STARLINK-30547,2023-156S,2026-07-15T18:06:00.408960,15.34398205,.00009428,53.1601,291.6265,95.7529,264.3582,0,U,58044,999,15466,.18572633E-4,.251E-5,0
STARLINK-30550,2023-156T,2026-07-16T04:19:58.057248,15.34400466,.0001431,53.1605,123.4315,77.6389,282.4774,0,U,58045,999,15706,-.29913E-5,-.477E-5,0
STARLINK-30548,2023-156U,2026-07-15T12:51:19.026432,15.34382735,.00010408,53.1594,292.4428,64.0143,296.0967,0,U,58046,999,15458,-.41803024E-4,-.1787E-4,0
STARLINK-30529,2023-156V,2026-07-16T04:00:01.998720,15.35372401,.0002016,53.1602,291.5696,89.3073,173.2860,0,U,58047,999,585,.16363E-2,.5708E-3,0
STARLINK-30554,2023-156W,2026-07-15T15:11:47.524416,15.30196635,.00008643,53.1589,293.7553,82.3831,277.7268,0,U,58048,999,15457,.64841061E-4,.1562E-4,0
STARLINK-30568,2023-158A,2026-07-15T21:39:07.314336,15.27572748,.0002079,43.0049,23.3782,236.6053,123.4600,0,U,58051,999,15316,.4463E-4,.966E-5,0
STARLINK-30575,2023-158B,2026-07-15T21:33:34.779744,15.27574210,.0000908,43.0023,23.3529,243.1468,116.9291,0,U,58052,999,15317,.18056E-5,-.212E-5,0
STARLINK-30577,2023-158C,2026-07-15T22:21:28.856736,15.27572228,.0000941,43.0015,22.7295,283.3843,76.6904,0,U,58053,999,15318,-.30847E-5,-.347E-5,0
STARLINK-30566,2023-158D,2026-07-15T22:10:22.856160,15.27687261,.0001752,42.9957,22.6947,319.6512,40.4210,0,U,58054,999,15318,.32648E-2,.90991E-3,0
STARLINK-30544,2023-158E,2026-07-15T21:53:43.016352,15.27532236,.0001919,43.0064,22.5999,243.9749,116.0905,0,U,58055,999,15318,.34948E-3,.9353E-4,0
STARLINK-30553,2023-158F,2026-07-15T20:39:55.194336,15.27575497,.000161,43.0026,23.0739,263.2545,96.8123,0,U,58056,999,15317,.98613E-5,.9E-7,0
STARLINK-30541,2023-158G,2026-07-15T22:04:49.848960,15.27571039,.0001382,43.0029,22.6602,268.9153,91.1540,0,U,58057,999,15318,.7736E-5,-.49E-6,0
STARLINK-30573,2023-158H,2026-07-15T22:19:37.614144,15.27578590,.0000873,43.0012,22.7339,286.1649,73.9107,0,U,58058,999,15318,.64868E-4,.1523E-4,0
STARLINK-30582,2023-158J,2026-07-15T21:48:10.092096,15.27575455,.0001603,43.0056,22.5743,265.3595,94.7073,0,U,58059,999,15318,.83908E-4,.2047E-4,0
STARLINK-30558,2023-158K,2026-07-15T21:22:27.901344,15.27580078,.0001128,43.0054,23.2842,280.6260,79.4464,0,U,58060,999,15317,.29377E-4,.546E-5,0
STARLINK-30579,2023-158L,2026-07-16T03:50:53.993760,15.27575818,.000116,43.0037,355.7142,253.6135,106.4589,0,U,58061,999,15351,.10559E-3,.2644E-4,0
STARLINK-30588,2023-158M,2026-07-15T20:51:01.073088,15.27573000,.0001264,43.0024,23.1299,267.0920,92.9787,0,U,58062,999,15317,.37997E-4,.783E-5,0
STARLINK-30585,2023-158N,2026-07-15T22:36:16.463808,15.27581094,.000133,43.0004,22.8210,264.8833,95.1866,0,U,58063,999,15318,.1038E-3,.2595E-4,0
STARLINK-30587,2023-158P,2026-07-15T21:59:16.321632,15.27576021,.0001533,43.0038,22.6310,272.8660,87.2016,0,U,58064,999,15318,.11982E-4,.67E-6,0
STARLINK-30576,2023-158Q,2026-07-15T20:52:52.008960,15.27581493,.0001433,43.0025,23.1462,253.8414,106.2280,0,U,58065,999,15317,.42181E-4,.899E-5,0
STARLINK-30571,2023-158R,2026-07-15T21:16:55.339968,15.27578339,.0000744,43.0012,23.2620,256.0504,104.0265,0,U,58066,999,15317,.23125E-4,.375E-5,0
STARLINK-30567,2023-158S,2026-07-15T12:03:05.057568,15.27574674,.00009553,43.0032,25.5214,244.1801,115.8952,0,U,58067,999,15311,-.4207786E-5,-.378E-5,0
STARLINK-30569,2023-158T,2026-07-15T22:30:00.528768,15.27584149,.0001997,43.0028,26.1951,257.8572,102.2056,0,U,58068,999,15314,.10071E-3,.251E-4,0
STARLINK-30480,2023-158U,2026-07-16T04:33:56.405088,15.27570020,.0001752,43.0016,239.1304,274.4214,85.6437,0,U,58069,999,15489,.66385E-4,.1564E-4,0
STARLINK-30532,2023-158V,2026-07-15T22:30:42.672096,15.27580946,.0001354,43.0045,22.7876,267.6651,92.4046,0,U,58070,999,15318,-.91772E-4,-.2787E-4,0
STARLINK-30506,2023-158X,2026-07-15T21:11:23.792064,15.27578551,.000408,42.9851,23.2402,51.2851,308.8364,0,U,58072,999,15317,.19737E-4,.28E-5,0
STARLINK-30604,2023-160A,2026-07-16T00:23:22.501824,15.27575401,.0001382,43.0023,73.0102,258.1367,101.9330,0,U,58075,999,15257,.21717E-4,.335E-5,0
STARLINK-30500,2023-160B,2026-07-16T00:41:52.101600,15.27581761,.0001075,43.0027,73.0948,268.8796,91.1933,0,U,58076,999,15257,.57566E-4,.1322E-4,0
